LEMUR-2-ANDIS           
1 42838U 17042P   26068.55941107  .00023598  00000+0  79875-3 0  9998
2 42838  97.3659 249.7950 0009101   4.3248 355.8070 15.30557934473198
STARLINK-32431          
1 61256U 24175P   26068.62477962  .00001903  00000+0  76409-4 0  9996
2 61256  53.1608 194.3378 0001135  61.6601 298.4514 15.30183964 81440
